[{"OBJECT_NAME":"STARLINK-11515 [DTC]","OBJECT_ID":"2025-006C","EPOCH":"2026-03-05T15:36:34.674048","MEAN_MOTION":15.70864116,"ECCENTRICITY":0.000181,"INCLINATION":43.0005,"RA_OF_ASC_NODE":164.5567,"ARG_OF_PERICENTER":270.9434,"MEAN_ANOMALY":89.1226,"EPHEMERIS_TYPE":0,"CLASSIFICATION_TYPE":"U","NORAD_CAT_ID":62556,"ELEMENT_SET_NO":999,"REV_AT_EPOCH":6596,"BSTAR":0.00089596,"MEAN_MOTION_DOT":0.00116255,"MEAN_MOTION_DDOT":0},{"OBJECT_NAME":"STARLINK-11478 [DTC]","OBJECT_ID":"2025-006D","EPOCH":"2026-03-05T15:05:58.173792","MEAN_MOTION":15.70907282,"ECCENTRICITY":0.0002546,"INCLINATION":42.9994,"RA_OF_ASC_NODE":164.3846,"ARG_OF_PERICENTER":289.688,"MEAN_ANOMALY":70.3713,"EPHEMERIS_TYPE":0,"CLASSIFICATION_TYPE":"U","NORAD_CAT_ID":62557,"ELEMENT_SET_NO":999,"REV_AT_EPOCH":6596,"BSTAR":0.0015919,"MEAN_MOTION_DOT":0.00209645,"MEAN_MOTION_DDOT":0},{"OBJECT_NAME":"STARLINK-11358 [DTC]","OBJECT_ID":"2025-006E","EPOCH":"2026-03-05T14:58:21.007200","MEAN_MOTION":15.70905994,"ECCENTRICITY":0.0002114,"INCLINATION":43,"RA_OF_ASC_NODE":164.3408,"ARG_OF_PERICENTER":280.6798,"MEAN_ANOMALY":79.3831,"EPHEMERIS_TYPE":0,"CLASSIFICATION_TYPE":"U","NORAD_CAT_ID":62558,"ELEMENT_SET_NO":999,"REV_AT_EPOCH":6596,"BSTAR":0.0015878,"MEAN_MOTION_DOT":0.00209075,"MEAN_MOTION_DDOT":0},{"OBJECT_NAME":"STARLINK-11517 [DTC]","OBJECT_ID":"2025-006F","EPOCH":"2026-03-05T22:00:01.999584","MEAN_MOTION":15.70886819,"ECCENTRICITY":0.00015735,"INCLINATION":43.0004,"RA_OF_ASC_NODE":162.7255,"ARG_OF_PERICENTER":266.1883,"MEAN_ANOMALY":251.7138,"EPHEMERIS_TYPE":0,"CLASSIFICATION_TYPE":"U","NORAD_CAT_ID":62559,"ELEMENT_SET_NO":999,"REV_AT_EPOCH":598,"BSTAR":-0.0003352102,"MEAN_MOTION_DOT":-0.00043322,"MEAN_MOTION_DDOT":0},{"OBJECT_NAME":"STARLINK-11519 [DTC]","OBJECT_ID":"2025-006G","EPOCH":"2026-03-05T06:36:10.856160","MEAN_MOTION":15.70944334,"ECCENTRICITY":0.0001507,"INCLINATION":42.9989,"RA_OF_ASC_NODE":166.9035,"ARG_OF_PERICENTER":241.551,"MEAN_ANOMALY":118.5206,"EPHEMERIS_TYPE":0,"CLASSIFICATION_TYPE":"U","NORAD_CAT_ID":62560,"ELEMENT_SET_NO":999,"REV_AT_EPOCH":6590,"BSTAR":0.0017329,"MEAN_MOTION_DOT":0.00229148,"MEAN_MOTION_DDOT":0},{"OBJECT_NAME":"STARLINK-11451 [DTC]","OBJECT_ID":"2025-006H","EPOCH":"2026-03-05T16:14:37.168512","MEAN_MOTION":15.70935606,"ECCENTRICITY":0.00028347,"INCLINATION":43.0002,"RA_OF_ASC_NODE":163.8722,"ARG_OF_PERICENTER":279.9731,"MEAN_ANOMALY":80.0817,"EPHEMERIS_TYPE":0,"CLASSIFICATION_TYPE":"U","NORAD_CAT_ID":62561,"ELEMENT_SET_NO":999,"REV_AT_EPOCH":6597,"BSTAR":0.0021298172,"MEAN_MOTION_DOT":0.00283513,"MEAN_MOTION_DDOT":0},{"OBJECT_NAME":"STARLINK-11530 [DTC]","OBJECT_ID":"2025-006J","EPOCH":"2026-03-05T14:12:39.821184","MEAN_MOTION":15.70909069,"ECCENTRICITY":0.0001639,"INCLINATION":43.0001,"RA_OF_ASC_NODE":164.9796,"ARG_OF_PERICENTER":274.8154,"MEAN_ANOMALY":85.2527,"EPHEMERIS_TYPE":0,"CLASSIFICATION_TYPE":"U","NORAD_CAT_ID":62562,"ELEMENT_SET_NO":999,"REV_AT_EPOCH":6595,"BSTAR":0.0015716,"MEAN_MOTION_DOT":0.00206905,"MEAN_MOTION_DDOT":0},{"OBJECT_NAME":"STARLINK-11536 [DTC]","OBJECT_ID":"2025-006K","EPOCH":"2026-03-05T14:50:42.540288","MEAN_MOTION":15.70943095,"ECCENTRICITY":0.0001886,"INCLINATION":43.0004,"RA_OF_ASC_NODE":164.2957,"ARG_OF_PERICENTER":295.4611,"MEAN_ANOMALY":64.6062,"EPHEMERIS_TYPE":0,"CLASSIFICATION_TYPE":"U","NORAD_CAT_ID":62563,"ELEMENT_SET_NO":999,"REV_AT_EPOCH":6596,"BSTAR":0.0028354,"MEAN_MOTION_DOT":0.00382256,"MEAN_MOTION_DDOT":0},{"OBJECT_NAME":"STARLINK-11540 [DTC]","OBJECT_ID":"2025-006L","EPOCH":"2026-03-05T13:49:42.231072","MEAN_MOTION":15.70959762,"ECCENTRICITY":7.78e-5,"INCLINATION":42.9998,"RA_OF_ASC_NODE":164.8482,"ARG_OF_PERICENTER":245.99,"MEAN_ANOMALY":114.0886,"EPHEMERIS_TYPE":0,"CLASSIFICATION_TYPE":"U","NORAD_CAT_ID":62564,"ELEMENT_SET_NO":999,"REV_AT_EPOCH":6595,"BSTAR":0.0018177,"MEAN_MOTION_DOT":0.00240884,"MEAN_MOTION_DDOT":0},{"OBJECT_NAME":"STARLINK-11523 [DTC]","OBJECT_ID":"2025-006M","EPOCH":"2026-03-05T07:51:08.277696","MEAN_MOTION":15.7088571,"ECCENTRICITY":0.0001543,"INCLINATION":43.0003,"RA_OF_ASC_NODE":166.4253,"ARG_OF_PERICENTER":271.8305,"MEAN_ANOMALY":88.2386,"EPHEMERIS_TYPE":0,"CLASSIFICATION_TYPE":"U","NORAD_CAT_ID":62565,"ELEMENT_SET_NO":999,"REV_AT_EPOCH":6591,"BSTAR":0.0019045,"MEAN_MOTION_DOT":0.00251964,"MEAN_MOTION_DDOT":0},{"OBJECT_NAME":"STARLINK-11525 [DTC]","OBJECT_ID":"2025-006N","EPOCH":"2026-03-05T06:42:30.756096","MEAN_MOTION":15.70762761,"ECCENTRICITY":0.000126,"INCLINATION":43.0006,"RA_OF_ASC_NODE":166.9356,"ARG_OF_PERICENTER":270.7276,"MEAN_ANOMALY":89.3447,"EPHEMERIS_TYPE":0,"CLASSIFICATION_TYPE":"U","NORAD_CAT_ID":62566,"ELEMENT_SET_NO":999,"REV_AT_EPOCH":6590,"BSTAR":-0.00045728,"MEAN_MOTION_DOT":-0.00058521,"MEAN_MOTION_DDOT":0},{"OBJECT_NAME":"STARLINK-32752","OBJECT_ID":"2025-006P","EPOCH":"2026-03-05T17:08:16.212192","MEAN_MOTION":15.27585503,"ECCENTRICITY":7.778e-5,"INCLINATION":42.9981,"RA_OF_ASC_NODE":315.118,"ARG_OF_PERICENTER":263.8415,"MEAN_ANOMALY":96.2348,"EPHEMERIS_TYPE":0,"CLASSIFICATION_TYPE":"U","NORAD_CAT_ID":62567,"ELEMENT_SET_NO":999,"REV_AT_EPOCH":6425,"BSTAR":0.001227465,"MEAN_MOTION_DOT":0.00033675,"MEAN_MOTION_DDOT":0},{"OBJECT_NAME":"STARLINK-32760","OBJECT_ID":"2025-006Q","EPOCH":"2026-03-05T17:15:39.614400","MEAN_MOTION":15.27610353,"ECCENTRICITY":8.293e-5,"INCLINATION":42.9974,"RA_OF_ASC_NODE":315.1407,"ARG_OF_PERICENTER":264.877,"MEAN_ANOMALY":95.1987,"EPHEMERIS_TYPE":0,"CLASSIFICATION_TYPE":"U","NORAD_CAT_ID":62568,"ELEMENT_SET_NO":999,"REV_AT_EPOCH":6425,"BSTAR":0.0012886152,"MEAN_MOTION_DOT":0.00035401,"MEAN_MOTION_DDOT":0},{"OBJECT_NAME":"STARLINK-32715","OBJECT_ID":"2025-006R","EPOCH":"2026-03-05T09:37:50.062368","MEAN_MOTION":15.2757822,"ECCENTRICITY":0.0001455,"INCLINATION":43.0015,"RA_OF_ASC_NODE":317.0677,"ARG_OF_PERICENTER":262.2235,"MEAN_ANOMALY":97.8452,"EPHEMERIS_TYPE":0,"CLASSIFICATION_TYPE":"U","NORAD_CAT_ID":62569,"ELEMENT_SET_NO":999,"REV_AT_EPOCH":6420,"BSTAR":0.0013559,"MEAN_MOTION_DOT":0.00037237,"MEAN_MOTION_DDOT":0},{"OBJECT_NAME":"STARLINK-32764","OBJECT_ID":"2025-006S","EPOCH":"2026-03-05T17:39:42.996384","MEAN_MOTION":15.27568219,"ECCENTRICITY":8.629e-5,"INCLINATION":42.9984,"RA_OF_ASC_NODE":315.2761,"ARG_OF_PERICENTER":275.3637,"MEAN_ANOMALY":84.7116,"EPHEMERIS_TYPE":0,"CLASSIFICATION_TYPE":"U","NORAD_CAT_ID":62570,"ELEMENT_SET_NO":999,"REV_AT_EPOCH":6425,"BSTAR":0.0011054957,"MEAN_MOTION_DOT":0.00030273,"MEAN_MOTION_DDOT":0},{"OBJECT_NAME":"STARLINK-32773","OBJECT_ID":"2025-006T","EPOCH":"2026-03-05T16:42:19.240128","MEAN_MOTION":15.27636007,"ECCENTRICITY":0.00016889,"INCLINATION":42.9985,"RA_OF_ASC_NODE":314.9796,"ARG_OF_PERICENTER":278.8465,"MEAN_ANOMALY":81.2195,"EPHEMERIS_TYPE":0,"CLASSIFICATION_TYPE":"U","NORAD_CAT_ID":62571,"ELEMENT_SET_NO":999,"REV_AT_EPOCH":6425,"BSTAR":0.00097377183,"MEAN_MOTION_DOT":0.00026677,"MEAN_MOTION_DDOT":0}]
