STARLINK-11515 [DTC]    
1 62556U 25006C   26064.65040132  .00116255  00000+0  89596-3 0  9995
2 62556  43.0005 164.5567 0001810 270.9434  89.1226 15.70864116 65964
STARLINK-11478 [DTC]    
1 62557U 25006D   26064.62914553  .00209645  00000+0  15919-2 0  9993
2 62557  42.9994 164.3846 0002546 289.6880  70.3713 15.70907282 65962
STARLINK-11358 [DTC]    
1 62558U 25006E   26064.62385425  .00209075  00000+0  15878-2 0  9995
2 62558  43.0000 164.3408 0002114 280.6798  79.3831 15.70905994 65965
STARLINK-11517 [DTC]    
1 62559U 25006F   26064.91668981 -.00043322  00000+0 -33521-3 0  9998
2 62559  43.0004 162.7255 0001573 266.1883 251.7138 15.70886819  5980
STARLINK-11519 [DTC]    
1 62560U 25006G   26064.27512565  .00229148  00000+0  17329-2 0  9992
2 62560  42.9989 166.9035 0001507 241.5510 118.5206 15.70944334 65906
STARLINK-11451 [DTC]    
1 62561U 25006H   26064.67681908  .00283513  00000+0  21298-2 0  9991
2 62561  43.0002 163.8722 0002834 279.9731  80.0817 15.70935606 65978
STARLINK-11530 [DTC]    
1 62562U 25006J   26064.59212756  .00206905  00000+0  15716-2 0  9992
2 62562  43.0001 164.9796 0001639 274.8154  85.2527 15.70909069 65953
STARLINK-11536 [DTC]    
1 62563U 25006K   26064.61854792  .00382256  00000+0  28354-2 0  9994
2 62563  43.0004 164.2957 0001886 295.4611  64.6062 15.70943095 65963
STARLINK-11540 [DTC]    
1 62564U 25006L   26064.57618323  .00240884  00000+0  18177-2 0  9990
2 62564  42.9998 164.8482 0000778 245.9900 114.0886 15.70959762 65954
STARLINK-11523 [DTC]    
1 62565U 25006M   26064.32717914  .00251964  00000+0  19045-2 0  9996
2 62565  43.0003 166.4253 0001543 271.8305  88.2386 15.70885710 65910
STARLINK-11525 [DTC]    
1 62566U 25006N   26064.27952264 -.00058521  00000+0 -45728-3 0  9994
2 62566  43.0006 166.9356 0001260 270.7276  89.3447 15.70762761 65903
STARLINK-32752          
1 62567U 25006P   26064.71407653  .00033675  00000+0  12275-2 0  9992
2 62567  42.9981 315.1180 0000777 263.8415  96.2348 15.27585503 64250
STARLINK-32760          
1 62568U 25006Q   26064.71920850  .00035401  00000+0  12886-2 0  9999
2 62568  42.9974 315.1407 0000829 264.8770  95.1987 15.27610353 64257
STARLINK-32715          
1 62569U 25006R   26064.40127387  .00037237  00000+0  13559-2 0  9997
2 62569  43.0015 317.0677 0001455 262.2235  97.8452 15.27578220 64207
STARLINK-32764          
1 62570U 25006S   26064.73591431  .00030273  00000+0  11055-2 0  9992
2 62570  42.9984 315.2761 0000862 275.3637  84.7116 15.27568219 64252
STARLINK-32773          
1 62571U 25006T   26064.69605602  .00026677  00000+0  97377-3 0  9999
2 62571  42.9985 314.9796 0001688 278.8465  81.2195 15.27636007 64252
